CS2                     
1 49262U 21088C   26068.73485932  .00018033  00000+0  56178-3 0  9999
2 49262  97.3928 134.2907 0011637  82.3491 277.9072 15.33255930245263
STARLINK-32298          
1 61525U 24183S   26068.47073154  .00001822  00000+0  73648-4 0  9994
2 61525  53.1612 143.1144 0001257  88.4931 271.6213 15.30197754 79623
